KINEIS-5E               
1 62083U 24219C   26115.98319872  .00000707  00000+0  11938-3 0  9997
2 62083  97.8947 276.4226 0007763  78.1782 282.0296 14.72321139 76083
KINEIS-5A               
1 62084U 24219D   26115.95012808  .00000923  00000+0  15376-3 0  9994
2 62084  97.9292 276.6463 0007243  91.0628 269.1410 14.72286864 76088
KINEIS-5B               
1 62085U 24219E   26115.92816963  .00001187  00000+0  17078-3 0  9990
2 62085  98.0016 280.0845 0003288  88.0300 272.1287 14.78215555 76289
KINEIS-2C               
1 62929U 25028B   26115.68598792  .00001032  00000+0  16880-3 0  9995
2 62929  98.0441 170.2790 0001960 132.9522 227.1851 14.72915545 64887
KINEIS-2D               
1 62930U 25028C   26115.70273892  .00001427  00000+0  21703-3 0  9999
2 62930  97.9327 169.1557 0003713  39.2250 320.9228 14.75513069 64971
KINEIS-2E               
1 62931U 25028D   26115.71961583  .00001208  00000+0  17908-3 0  9991
2 62931  97.8994 168.4651 0001403  79.5520 280.5848 14.76860833 65031
KINEIS-2A               
1 62932U 25028E   26115.72152086  .00001120  00000+0  18547-3 0  9996
2 62932  98.1183 171.0412 0001829 330.9790  29.1315 14.72222426 64880
KINEIS-2B               
1 62934U 25028G   26115.70965305  .00001094  00000+0  17697-3 0  9997
2 62934  97.9709 169.5186 0002545 343.5324  16.5801 14.73246742 64936
KINEIS-4E               
1 63300U 25056A   26114.90055321  .00000953  00000+0  15818-3 0  9991
2 63300  97.9216 240.2625 0000679  73.7768 286.3514 14.72366882 59289
KINEIS-4C               
1 63301U 25056B   26115.93171006  .00000245  00000+0  46350-4 0  9995
2 63301  97.9245 241.4673 0004578 113.4467 246.7222 14.72371521 59448
KINEIS-4D               
1 63302U 25056C   26115.93658645  .00000596  00000+0  10194-3 0  9990
2 63302  97.9364 241.4654 0003601 118.2314 241.9258 14.72340428 59448
KINEIS-4A               
1 63303U 25056D   26115.35832473  .00003935  00000+0  63087-3 0  9999
2 63303  97.9271 240.8180 0003102 104.9316 255.2236 14.72249150 59357
KINEIS-4B               
1 63304U 25056E   26114.93368483  .00000015  00000+0  10088-4 0  9998
2 63304  97.9285 240.4487 0006846  96.2822 263.9165 14.72278046 59287
