[{"OBJECT_NAME":"KINEIS-5E","OBJECT_ID":"2024-219C","EPOCH":"2026-04-25T23:35:48.369408","MEAN_MOTION":14.72321139,"ECCENTRICITY":0.00077637,"INCLINATION":97.8947,"RA_OF_ASC_NODE":276.4226,"ARG_OF_PERICENTER":78.1782,"MEAN_ANOMALY":282.0296,"EPHEMERIS_TYPE":0,"CLASSIFICATION_TYPE":"U","NORAD_CAT_ID":62083,"ELEMENT_SET_NO":999,"REV_AT_EPOCH":7608,"BSTAR":0.00011937642,"MEAN_MOTION_DOT":7.07e-6,"MEAN_MOTION_DDOT":0},{"OBJECT_NAME":"KINEIS-5A","OBJECT_ID":"2024-219D","EPOCH":"2026-04-25T22:48:11.066112","MEAN_MOTION":14.72286864,"ECCENTRICITY":0.00072435,"INCLINATION":97.9292,"RA_OF_ASC_NODE":276.6463,"ARG_OF_PERICENTER":91.0628,"MEAN_ANOMALY":269.141,"EPHEMERIS_TYPE":0,"CLASSIFICATION_TYPE":"U","NORAD_CAT_ID":62084,"ELEMENT_SET_NO":999,"REV_AT_EPOCH":7608,"BSTAR":0.00015375932,"MEAN_MOTION_DOT":9.23e-6,"MEAN_MOTION_DDOT":0},{"OBJECT_NAME":"KINEIS-5B","OBJECT_ID":"2024-219E","EPOCH":"2026-04-25T22:16:33.856032","MEAN_MOTION":14.78215555,"ECCENTRICITY":0.00032882,"INCLINATION":98.0016,"RA_OF_ASC_NODE":280.0845,"ARG_OF_PERICENTER":88.03,"MEAN_ANOMALY":272.1287,"EPHEMERIS_TYPE":0,"CLASSIFICATION_TYPE":"U","NORAD_CAT_ID":62085,"ELEMENT_SET_NO":999,"REV_AT_EPOCH":7628,"BSTAR":0.00017077744,"MEAN_MOTION_DOT":1.187e-5,"MEAN_MOTION_DDOT":0},{"OBJECT_NAME":"KINEIS-2C","OBJECT_ID":"2025-028B","EPOCH":"2026-04-25T16:27:49.356288","MEAN_MOTION":14.72915545,"ECCENTRICITY":0.00019606,"INCLINATION":98.0441,"RA_OF_ASC_NODE":170.279,"ARG_OF_PERICENTER":132.9522,"MEAN_ANOMALY":227.1851,"EPHEMERIS_TYPE":0,"CLASSIFICATION_TYPE":"U","NORAD_CAT_ID":62929,"ELEMENT_SET_NO":999,"REV_AT_EPOCH":6488,"BSTAR":0.00016880016,"MEAN_MOTION_DOT":1.032e-5,"MEAN_MOTION_DDOT":0},{"OBJECT_NAME":"KINEIS-2D","OBJECT_ID":"2025-028C","EPOCH":"2026-04-25T16:51:56.642688","MEAN_MOTION":14.75513069,"ECCENTRICITY":0.00037134,"INCLINATION":97.9327,"RA_OF_ASC_NODE":169.1557,"ARG_OF_PERICENTER":39.225,"MEAN_ANOMALY":320.9228,"EPHEMERIS_TYPE":0,"CLASSIFICATION_TYPE":"U","NORAD_CAT_ID":62930,"ELEMENT_SET_NO":999,"REV_AT_EPOCH":6497,"BSTAR":0.00021703307,"MEAN_MOTION_DOT":1.427e-5,"MEAN_MOTION_DDOT":0},{"OBJECT_NAME":"KINEIS-2E","OBJECT_ID":"2025-028D","EPOCH":"2026-04-25T17:16:14.807712","MEAN_MOTION":14.76860833,"ECCENTRICITY":0.00014034,"INCLINATION":97.8994,"RA_OF_ASC_NODE":168.4651,"ARG_OF_PERICENTER":79.552,"MEAN_ANOMALY":280.5848,"EPHEMERIS_TYPE":0,"CLASSIFICATION_TYPE":"U","NORAD_CAT_ID":62931,"ELEMENT_SET_NO":999,"REV_AT_EPOCH":6503,"BSTAR":0.00017908355,"MEAN_MOTION_DOT":1.208e-5,"MEAN_MOTION_DDOT":0},{"OBJECT_NAME":"KINEIS-2A","OBJECT_ID":"2025-028E","EPOCH":"2026-04-25T17:18:59.402304","MEAN_MOTION":14.72222426,"ECCENTRICITY":0.00018291,"INCLINATION":98.1183,"RA_OF_ASC_NODE":171.0412,"ARG_OF_PERICENTER":330.979,"MEAN_ANOMALY":29.1315,"EPHEMERIS_TYPE":0,"CLASSIFICATION_TYPE":"U","NORAD_CAT_ID":62932,"ELEMENT_SET_NO":999,"REV_AT_EPOCH":6488,"BSTAR":0.00018547249,"MEAN_MOTION_DOT":1.12e-5,"MEAN_MOTION_DDOT":0},{"OBJECT_NAME":"KINEIS-2B","OBJECT_ID":"2025-028G","EPOCH":"2026-04-25T17:01:54.023520","MEAN_MOTION":14.73246742,"ECCENTRICITY":0.0002545,"INCLINATION":97.9709,"RA_OF_ASC_NODE":169.5186,"ARG_OF_PERICENTER":343.5324,"MEAN_ANOMALY":16.5801,"EPHEMERIS_TYPE":0,"CLASSIFICATION_TYPE":"U","NORAD_CAT_ID":62934,"ELEMENT_SET_NO":999,"REV_AT_EPOCH":6493,"BSTAR":0.00017696779,"MEAN_MOTION_DOT":1.094e-5,"MEAN_MOTION_DDOT":0},{"OBJECT_NAME":"KINEIS-4E","OBJECT_ID":"2025-056A","EPOCH":"2026-04-24T21:36:47.797344","MEAN_MOTION":14.72366882,"ECCENTRICITY":6.796e-5,"INCLINATION":97.9216,"RA_OF_ASC_NODE":240.2625,"ARG_OF_PERICENTER":73.7768,"MEAN_ANOMALY":286.3514,"EPHEMERIS_TYPE":0,"CLASSIFICATION_TYPE":"U","NORAD_CAT_ID":63300,"ELEMENT_SET_NO":999,"REV_AT_EPOCH":5928,"BSTAR":0.00015817757,"MEAN_MOTION_DOT":9.53e-6,"MEAN_MOTION_DDOT":0},{"OBJECT_NAME":"KINEIS-4C","OBJECT_ID":"2025-056B","EPOCH":"2026-04-25T22:21:39.749184","MEAN_MOTION":14.72371521,"ECCENTRICITY":0.00045789,"INCLINATION":97.9245,"RA_OF_ASC_NODE":241.4673,"ARG_OF_PERICENTER":113.4467,"MEAN_ANOMALY":246.7222,"EPHEMERIS_TYPE":0,"CLASSIFICATION_TYPE":"U","NORAD_CAT_ID":63301,"ELEMENT_SET_NO":999,"REV_AT_EPOCH":5944,"BSTAR":4.6349667e-5,"MEAN_MOTION_DOT":2.45e-6,"MEAN_MOTION_DDOT":0},{"OBJECT_NAME":"KINEIS-4D","OBJECT_ID":"2025-056C","EPOCH":"2026-04-25T22:28:41.069280","MEAN_MOTION":14.72340428,"ECCENTRICITY":0.00036015,"INCLINATION":97.9364,"RA_OF_ASC_NODE":241.4654,"ARG_OF_PERICENTER":118.2314,"MEAN_ANOMALY":241.9258,"EPHEMERIS_TYPE":0,"CLASSIFICATION_TYPE":"U","NORAD_CAT_ID":63302,"ELEMENT_SET_NO":999,"REV_AT_EPOCH":5944,"BSTAR":0.00010194165,"MEAN_MOTION_DOT":5.96e-6,"MEAN_MOTION_DDOT":0},{"OBJECT_NAME":"KINEIS-4A","OBJECT_ID":"2025-056D","EPOCH":"2026-04-25T08:35:59.256672","MEAN_MOTION":14.7224915,"ECCENTRICITY":0.00031029,"INCLINATION":97.9271,"RA_OF_ASC_NODE":240.818,"ARG_OF_PERICENTER":104.9316,"MEAN_ANOMALY":255.2236,"EPHEMERIS_TYPE":0,"CLASSIFICATION_TYPE":"U","NORAD_CAT_ID":63303,"ELEMENT_SET_NO":999,"REV_AT_EPOCH":5935,"BSTAR":0.0006308716,"MEAN_MOTION_DOT":3.935e-5,"MEAN_MOTION_DDOT":0},{"OBJECT_NAME":"KINEIS-4B","OBJECT_ID":"2025-056E","EPOCH":"2026-04-24T22:24:30.369312","MEAN_MOTION":14.72278046,"ECCENTRICITY":0.00068466,"INCLINATION":97.9285,"RA_OF_ASC_NODE":240.4487,"ARG_OF_PERICENTER":96.2822,"MEAN_ANOMALY":263.9165,"EPHEMERIS_TYPE":0,"CLASSIFICATION_TYPE":"U","NORAD_CAT_ID":63304,"ELEMENT_SET_NO":999,"REV_AT_EPOCH":5928,"BSTAR":1.0088328e-5,"MEAN_MOTION_DOT":1.5e-7,"MEAN_MOTION_DDOT":0}]
